{
  "constellation": "gps",
  "timestamp": "2025-07-21T05:06:14.396670+00:00",
  "satellite_count": 32,
  "data": [
    {
      "satellite_name": "GPS BIII-3  (PRN 23)",
      "catalog_number": 45854,
      "epoch_year": 2025,
      "epoch_day": 201.91294984,
      "first_derivative": -5.5e-07,
      "second_derivative": 0.0,
      "drag_term": 0.0,
      "inclination": 56.4422,
      "right_ascension": 41.8229,
      "eccentricity": 0.005485,
      "argument_of_perigee": 198.9802,
      "mean_anomaly": 333.8954,
      "mean_motion": 2.00565437,
      "revolution_number": 3738,
      "line1": "1 45854U 20041A   25201.91294984 -.00000055  00000+0  00000+0 0  9998",
      "line2": "2 45854  56.4422  41.8229 0054850 198.9802 333.8954  2.00565437 37384",
      "last_updated": "2025-07-21T05:06:14.396637+00:00",
      "constellation": "gps"
    },
    {
      "satellite_name": "GPS BIII-4  (PRN 14)",
      "catalog_number": 46826,
      "epoch_year": 2025,
      "epoch_day": 201.45531638,
      "first_derivative": 9.5e-07,
      "second_derivative": 0.0,
      "drag_term": 0.0,
      "inclination": 54.0529,
      "right_ascension": 224.2341,
      "eccentricity": 0.0061464,
      "argument_of_perigee": 202.7871,
      "mean_anomaly": 327.7417,
      "mean_motion": 2.00558328,
      "revolution_number": 3485,
      "line1": "1 46826U 20078A   25201.45531638  .00000095  00000+0  00000+0 0  9990",
      "line2": "2 46826  54.0529 224.2341 0061464 202.7871 327.7417  2.00558328 34853",
      "last_updated": "2025-07-21T05:06:14.396640+00:00",
      "constellation": "gps"
    },
    {
      "satellite_name": "GPS BIII-5  (PRN 11)",
      "catalog_number": 48859,
      "epoch_year": 2025,
      "epoch_day": 200.95342714,
      "first_derivative": -9.2e-07,
      "second_derivative": 0.0,
      "drag_term": 0.0,
      "inclination": 55.3066,
      "right_ascension": 345.8045,
      "eccentricity": 0.0021176,
      "argument_of_perigee": 225.9428,
      "mean_anomaly": 133.3199,
      "mean_motion": 2.00561399,
      "revolution_number": 3008,
      "line1": "1 48859U 21054A   25200.95342714 -.00000092  00000+0  00000+0 0  9990",
      "line2": "2 48859  55.3066 345.8045 0021176 225.9428 133.3199  2.00561399 30084",
      "last_updated": "2025-07-21T05:06:14.396644+00:00",
      "constellation": "gps"
    },
    {
      "satellite_name": "GPS BIII-6  (PRN 28)",
      "catalog_number": 55268,
      "epoch_year": 2025,
      "epoch_day": 197.90877987,
      "first_derivative": 8e-07,
      "second_derivative": 0.0,
      "drag_term": 0.0,
      "inclination": 55.0997,
      "right_ascension": 161.6889,
      "eccentricity": 0.0003735,
      "argument_of_perigee": 330.2964,
      "mean_anomaly": 30.1995,
      "mean_motion": 2.00566683,
      "revolution_number": 1852,
      "line1": "1 55268U 23009A   25197.90877987  .00000080  00000+0  00000+0 0  9995",
      "line2": "2 55268  55.0997 161.6889 0003735 330.2964  30.1995  2.00566683 18526",
      "last_updated": "2025-07-21T05:06:14.396647+00:00",
      "constellation": "gps"
    },
    {
      "satellite_name": "GPS BIII-7  (PRN 01)",
      "catalog_number": 62339,
      "epoch_year": 2025,
      "epoch_day": 201.03864307,
      "first_derivative": -9.2e-07,
      "second_derivative": 0.0,
      "drag_term": 0.0,
      "inclination": 54.9665,
      "right_ascension": 347.6388,
      "eccentricity": 0.0006097,
      "argument_of_perigee": 347.1223,
      "mean_anomaly": 189.6958,
      "mean_motion": 2.00558809,
      "revolution_number": 458,
      "line1": "1 62339U 24242A   25201.03864307 -.00000092  00000+0  00000+0 0  9998",
      "line2": "2 62339  54.9665 347.6388 0006097 347.1223 189.6958  2.00558809  4583",
      "last_updated": "2025-07-21T05:06:14.396651+00:00",
      "constellation": "gps"
    },
    {
      "satellite_name": "GPS BIII-8  (PRN 21)",
      "catalog_number": 64202,
      "epoch_year": 2025,
      "epoch_day": 197.54239454,
      "first_derivative": -5.2e-07,
      "second_derivative": 0.0,
      "drag_term": 0.0,
      "inclination": 54.9938,
      "right_ascension": 44.6649,
      "eccentricity": 0.000119,
      "argument_of_perigee": 303.1059,
      "mean_anomaly": 59.1936,
      "mean_motion": 2.00568632,
      "revolution_number": 114,
      "line1": "1 64202U 25116A   25197.54239454 -.00000052  00000+0  00000+0 0  9995",
      "line2": "2 64202  54.9938  44.6649 0001190 303.1059  59.1936  2.00568632  1140",
      "last_updated": "2025-07-21T05:06:14.396655+00:00",
      "constellation": "gps"
    }
  ]
}